$$SOE
2460728.500000000, A.D. 2025-Feb-22 00:00:00.0000, 3.584339538125957E+08, 3.365875450569758E+08, -7.821137467979696E+07,
2460735.500000000, A.D. 2025-Mar-01 00:00:00.0000, 3.527585894786556E+08, 3.429713954672011E+08, -7.729764107373987E+07,
2460742.500000000, A.D. 2025-Mar-08 00:00:00.0000, 3.469445122267742E+08, 3.492205386550693E+08, -7.635350507624593E+07,
2460749.500000000, A.D. 2025-Mar-15 00:00:00.0000, 3.409941011174245E+08, 3.553326152687849E+08, -7.537935820246765E+07,
2460756.500000000, A.D. 2025-Mar-22 00:00:00.0000, 3.349097459354945E+08, 3.613052851403347E+08, -7.437559449704699E+07,
2460763.500000000, A.D. 2025-Mar-29 00:00:00.0000, 3.286938474034880E+08, 3.671362243066240E+08, -7.334261077425225E+07,
2460770.500000000, A.D. 2025-Apr-05 00:00:00.0000, 3.223488191339124E+08, 3.728231229630128E+08, -7.228080695053804E+07,
2460777.500000000, A.D. 2025-Apr-12 00:00:00.0000, 3.158770893945919E+08, 3.783636844521608E+08, -7.119058628446555E+07,
2460784.500000000, A.D. 2025-Apr-19 00:00:00.0000, 3.092811024997988E+08, 3.837556244068170E+08, -7.007235557910801E+07,
2460791.500000000, A.D. 2025-Apr-26 00:00:00.0000, 3.025633200994628E+08, 3.889966698438282E+08, -6.892652538884020E+07,
2460798.500000000, A.D. 2025-May-03 00:00:00.0000, 2.957262224809082E+08, 3.940845582289401E+08, -6.775351023975244E+07,
2460805.500000000, A.D. 2025-May-10 00:00:00.0000, 2.887723099125752E+08, 3.990170365215313E+08, -6.655372886595652E+07,
2460812.500000000, A.D. 2025-May-17 00:00:00.0000, 2.817041040673883E+08, 4.037918601588783E+08, -6.532760446883227E+07,
2460819.500000000, A.D. 2025-May-24 00:00:00.0000, 2.745241497007748E+08, 4.084067919264137E+08, -6.407556501996332E+07,
2460826.500000000, A.D. 2025-May-31 00:00:00.0000, 2.672350170026418E+08, 4.128596010262088E+08, -6.279804362111424E+07,
2460833.500000000, A.D. 2025-Jun-07 00:00:00.0000, 2.598393042243138E+08, 4.171480635490772E+08, -6.149547878642465E+07,
2460840.500000000, A.D. 2025-Jun-14 00:00:00.0000, 2.523396382164262E+08, 4.212699636829645E+08, -6.016831448432218E+07,
2460847.500000000, A.D. 2025-Jun-21 00:00:00.0000, 2.447386740945466E+08, 4.252230923883361E+08, -5.881700031815380E+07,
2460854.500000000, A.D. 2025-Jun-28 00:00:00.0000, 2.370390971634528E+08, 4.290052453086371E+08, -5.744199198907691E+07,
2460861.500000000, A.D. 2025-Jul-05 00:00:00.0000, 2.292436255858364E+08, 4.326142220734077E+08, -5.604375172628501E+07,
2460868.500000000, A.D. 2025-Jul-12 00:00:00.0000, 2.213550126056686E+08, 4.360478261899843E+08, -5.462274864127006E+07,
2460875.500000000, A.D. 2025-Jul-19 00:00:00.0000, 2.133760485172930E+08, 4.393038649510444E+08, -5.317945907079838E+07,
2460882.500000000, A.D. 2025-Jul-26 00:00:00.0000, 2.053095625920930E+08, 4.423801493042029E+08, -5.171436693287350E+07,
2460889.500000000, A.D. 2025-Aug-02 00:00:00.0000, 1.971584250303018E+08, 4.452744937083301E+08, -5.022796410032809E+07,
2460896.500000000, A.D. 2025-Aug-09 00:00:00.0000, 1.889255489637787E+08, 4.479847159651457E+08, -4.872075079577552E+07,
2460903.500000000, A.D. 2025-Aug-16 00:00:00.0000, 1.806138925892486E+08, 4.505086369660444E+08, -4.719323602046233E+07,
2460910.500000000, A.D. 2025-Aug-23 00:00:00.0000, 1.722264617271525E+08, 4.528440803737692E+08, -4.564593804273644E+07,
2460917.500000000, A.D. 2025-Aug-30 00:00:00.0000, 1.637663131375456E+08, 4.549888729561861E+08, -4.407938491815199E+07,
2460924.500000000, A.D. 2025-Sep-06 00:00:00.0000, 1.552365571772545E+08, 4.569408465748251E+08, -4.249411482947050E+07,
2460931.500000000, A.D. 2025-Sep-13 00:00:00.0000, 1.466403581276548E+08, 4.586978393471012E+08, -4.089067629584277E+07,
2460938.500000000, A.D. 2025-Sep-20 00:00:00.0000, 1.379809354656732E+08, 4.602576943441626E+08, -3.926962868593496E+07,
2460945.500000000, A.D. 2025-Sep-27 00:00:00.0000, 1.292615671394077E+08, 4.616182589448097E+08, -3.763154287884521E+07,
2460952.500000000, A.D. 2025-Oct-04 00:00:00.0000, 1.204855928352218E+08, 4.627773853914059E+08, -3.597700184451440E+07,
2460959.500000000, A.D. 2025-Oct-11 00:00:00.0000, 1.116564168654424E+08, 4.637329316112140E+08, -3.430660118694654E+07,
2460966.500000000, A.D. 2025-Oct-18 00:00:00.0000, 1.027775109629798E+08, 4.644827620356938E+08, -3.262094969924754E+07,
2460973.500000000, A.D. 2025-Oct-25 00:00:00.0000, 9.385241712479706E+07, 4.650247484360683E+08, -3.092066994296712E+07,
2460980.500000000, A.D. 2025-Nov-01 00:00:00.0000, 8.488475054567039E+07, 4.653567707984321E+08, -2.920639885470346E+07,
2460987.500000000, A.D. 2025-Nov-08 00:00:00.0000, 7.587820267846268E+07, 4.654767182154633E+08, -2.747878838634726E+07,
2460994.500000000, A.D. 2025-Nov-15 00:00:00.0000, 6.683654457015914E+07, 4.653824897454644E+08, -2.573850619798154E+07,
2461001.500000000, A.D. 2025-Nov-22 00:00:00.0000, 5.776363087752316E+07, 4.650719954692103E+08, -2.398623642309406E+07,
2461008.500000000, A.D. 2025-Nov-29 00:00:00.0000, 4.866340441071054E+07, 4.645431588913373E+08, -2.222268040011603E+07,
2461015.500000000, A.D. 2025-Dec-06 00:00:00.0000, 3.953989892984437E+07, 4.637939205612006E+08, -2.044855717320877E+07,
2461022.500000000, A.D. 2025-Dec-13 00:00:00.0000, 3.039724062853106E+07, 4.628222395519009E+08, -1.866460407757625E+07,
2461029.500000000, A.D. 2025-Dec-20 00:00:00.0000, 2.123965179589664E+07, 4.616260938339123E+08, -1.687157764637491E+07,
2461036.500000000, A.D. 2025-Dec-27 00:00:00.0000, 1.207145558377031E+07, 4.602034821499851E+08, -1.507025452962261E+07,
2461043.500000000, A.D. 2026-Jan-03 00:00:00.0000, 2.897080419442065E+06, 4.585524267894390E+08, -1.326143234180200E+07,
2461050.500000000, A.D. 2026-Jan-10 00:00:00.0000, -6.278935828584392E+06, 4.566709765978925E+08, -1.144593050373054E+07,
2461057.500000000, A.D. 2026-Jan-17 00:00:00.0000, -1.545194170248937E+07, 4.545572101481714E+08, -9.624591107535124E+06,
2461064.500000000, A.D. 2026-Jan-24 00:00:00.0000, -2.461716795040957E+07, 4.522092391142198E+08, -7.798279809961289E+06,
2461071.500000000, A.D. 2026-Jan-31 00:00:00.0000, -3.376972324578761E+07, 4.496252118611526E+08, -5.967886756538481E+06,
2461078.500000000, A.D. 2026-Feb-07 00:00:00.0000, -4.290458977415286E+07, 4.468033172156810E+08, -4.134327546464562E+06,
2461085.500000000, A.D. 2026-Feb-14 00:00:00.0000, -5.201661844028313E+07, 4.437417884240617E+08, -2.298544261959493E+06,
2461092.500000000, A.D. 2026-Feb-21 00:00:00.0000, -6.110052331584009E+07, 4.404389078983701E+08, -4.615065495332778E+05,
2461099.500000000, A.D. 2026-Feb-28 00:00:00.0000, -7.015087642116253E+07, 4.368930139304063E+08, 1.375787441659510E+06,
2461106.500000000, A.D. 2026-Mar-07 00:00:00.0000, -7.916210490859775E+07, 4.331025074483450E+08, 3.212310295195907E+06,
2461113.500000000, A.D. 2026-Mar-14 00:00:00.0000, -8.812848788440572E+07, 4.290658565060997E+08, 5.047004293345660E+06,
2461120.500000000, A.D. 2026-Mar-21 00:00:00.0000, -9.704415110396498E+07, 4.247816014318996E+08, 6.878780189157754E+06,
2461127.500000000, A.D. 2026-Mar-28 00:00:00.0000, -1.059030615668753E+08, 4.202483616965845E+08, 8.706516055391788E+06,
2461134.500000000, A.D. 2026-Apr-04 00:00:00.0000, -1.146990226348372E+08, 4.154648435663168E+08, 1.052905618981904E+07,
2461141.500000000, A.D. 2026-Apr-11 00:00:00.0000, -1.234256694213987E+08, 4.104298482111528E+08, 1.234521002607444E+07,
2461148.500000000, A.D. 2026-Apr-18 00:00:00.0000, -1.320764643203279E+08, 4.051422802961012E+08, 1.415375103920448E+07,
2461155.500000000, A.D. 2026-Apr-25 00:00:00.0000, -1.406446926554863E+08, 3.996011571037616E+08, 1.595341564784276E+07,
2461162.500000000, A.D. 2026-May-02 00:00:00.0000, -1.491234584531394E+08, 3.938056181932074E+08, 1.774290211337632E+07,
2461169.500000000, A.D. 2026-May-09 00:00:00.0000, -1.575056802477901E+08, 3.877549355620395E+08, 1.952086942555812E+07,
2461176.500000000, A.D. 2026-May-16 00:00:00.0000, -1.657840865853482E+08, 3.814485244820093E+08, 2.128593615829867E+07,
2461183.500000000, A.D. 2026-May-23 00:00:00.0000, -1.739512112217797E+08, 3.748859560637244E+08, 2.303667938251984E+07,
2461190.500000000, A.D. 2026-May-30 00:00:00.0000, -1.819993901530617E+08, 3.680669719073733E+08, 2.477163386208136E+07,
2461197.500000000, A.D. 2026-Jun-06 00:00:00.0000, -1.899207608538961E+08, 3.609914976037554E+08, 2.648929130482824E+07,
2461204.500000000, A.D. 2026-Jun-13 00:00:00.0000, -1.977072601256984E+08, 3.536596553170838E+08, 2.818809936067082E+07,
2461211.500000000, A.D. 2026-Jun-20 00:00:00.0000, -2.053506211319638E+08, 3.460717784103498E+08, 2.986646066516547E+07,
2461218.500000000, A.D. 2026-Jun-27 00:00:00.0000, -2.128423714009916E+08, 3.382284278073651E+08, 3.152273207135837E+07,
2461225.500000000, A.D. 2026-Jul-04 00:00:00.0000, -2.201738318842935E+08, 3.301304093431292E+08, 3.315522402291878E+07,
2461232.500000000, A.D. 2026-Jul-11 00:00:00.0000, -2.273361169151237E+08, 3.217787919913729E+08, 3.476220005267560E+07,
2461239.500000000, A.D. 2026-Jul-18 00:00:00.0000, -2.343201350830018E+08, 3.131749270107689E+08, 3.634187642031765E+07,
2461246.500000000, A.D. 2026-Jul-25 00:00:00.0000, -2.411165911183839E+08, 3.043204680220434E+08, 3.789242190952620E+07,
2461253.500000000, A.D. 2026-Aug-01 00:00:00.0000, -2.477159888680892E+08, 2.952173919694758E+08, 3.941195780069891E+07,
2461260.500000000, A.D. 2026-Aug-08 00:00:00.0000, -2.541086352855430E+08, 2.858680209227529E+08, 4.089855802343176E+07,
2461267.500000000, A.D. 2026-Aug-15 00:00:00.0000, -2.602846451702665E+08, 2.762750451495795E+08, 4.235024951666088E+07,
2461274.500000000, A.D. 2026-Aug-22 00:00:00.0000, -2.662339475788376E+08, 2.664415486471245E+08, 4.376501299774852E+07,
2461281.500000000, A.D. 2026-Aug-29 00:00:00.0000, -2.719462963689177E+08, 2.563710357135155E+08, 4.514078427270004E+07,
2461288.500000000, A.D. 2026-Sep-05 00:00:00.0000, -2.774112829195932E+08, 2.460674556268621E+08, 4.647545569387583E+07,
2461295.500000000, A.D. 2026-Sep-12 00:00:00.0000, -2.826183487567029E+08, 2.355352278350509E+08, 4.776687778191294E+07,
$$EOE